     2.100          NAVIGATION                              RINEX VERSION / TYPE
fic2rin                                 01/19/2015 00:18:39 PGM / RUN BY / DATE
                                                            END OF HEADER
 4 15  1 18 14  0  0.0 -.582775101066D-05 -.568434188608D-12  .000000000000D+00
     .920000000000D+02  .171562500000D+02  .505163899247D-08 -.225516146018D+01
     .804662704468D-06  .109831440495D-01  .995956361294D-05  .515373629570D+04
     .504000000000D+05  .122934579849D-06  .310373197089D+00 -.447034835815D-07
     .939657119736D+00  .174906250000D+03  .105125172632D+01 -.801569102856D-08
     .737530721115D-09  .100000000000D+01  .182800000000D+04  .000000000000D+00
     .340000000000D+01  .000000000000D+00 -.651925802231D-08  .920000000000D+02
     .432060000000D+05  .400000000000D+01
 5 15  1 18 14  0  0.0 -.291201751679D-03  .511590769747D-11  .000000000000D+00
     .480000000000D+02 -.781250000000D+01  .546594196414D-08  .876543807019D+00
    -.173225998878D-06  .405299593695D-02  .495091080666D-05  .515374262428D+04
     .504000000000D+05  .149011611938D-07  .136484399857D+01  .502914190292D-07
     .946216620577D+00  .273937500000D+03  .423499117558D+00 -.846106672311D-08
    -.221437795202D-09  .100000000000D+01  .182800000000D+04  .000000000000D+00
     .240000000000D+01  .000000000000D+00 -.107102096081D-07  .480000000000D+02
     .432060000000D+05  .400000000000D+01
 7 15  1 18 14  0  0.0  .432606786489D-03  .341060513165D-11  .000000000000D+00
     .580000000000D+02  .146718750000D+03  .405124017899D-08 -.263117311874D+01
     .749528408051D-05  .795866746921D-02  .681169331074D-05  .515374323845D+04
     .504000000000D+05  .000000000000D+00 -.279350126203D+01 -.298023223877D-07
     .971831905065D+00  .256000000000D+03 -.275195406527D+01 -.784389815841D-08
     .324299222650D-09  .100000000000D+01  .182800000000D+04  .000000000000D+00
     .240000000000D+01  .000000000000D+00 -.111758708954D-07  .580000000000D+02
     .432060000000D+05  .400000000000D+01
 8 15  1 18 14  0  0.0  .171819701791D-04  .113686837722D-12  .000000000000D+00
     .350000000000D+02  .126406250000D+03  .361407911233D-08 -.126330803927D+01
     .664032995701D-05  .147639665520D-01  .599399209023D-05  .515221357155D+04
     .504000000000D+05  .305473804474D-06 -.268893875636D+01 -.184401869774D-06
     .995323870754D+00  .283843750000D+03 -.267369337107D+01 -.773889378456D-08
     .338585532018D-09  .100000000000D+01  .182800000000D+04  .000000000000D+00
     .240000000000D+01  .630000000000D+02 -.512227416039D-08  .350000000000D+02
     .432060000000D+05  .400000000000D+01
 9 15  1 18 14  0  0.0 -.589429400861D-04 -.115960574476D-10  .000000000000D+00
     .290000000000D+02  .288125000000D+02  .437375361297D-08 -.317491130334D+00
     .140257179737D-05  .278147752397D-03  .111963599920D-04  .515367098808D+04
     .504000000000D+05  .931322574615D-08  .241482982530D+01 -.931322574615D-08
     .958486910336D+00  .162250000000D+03  .227669350186D+01 -.778675292094D-08
    -.621811615235D-09  .100000000000D+01  .182800000000D+04  .000000000000D+00
     .240000000000D+01  .000000000000D+00  .465661287308D-09  .290000000000D+02
     .432060000000D+05  .400000000000D+01
10 15  1 18 14  0  0.0 -.159305054694D-03 -.170530256582D-11  .000000000000D+00
     .190000000000D+02 -.878125000000D+01  .565416409006D-08  .121976000068D+01
    -.350177288055D-06  .145286425250D-01  .555999577045D-05  .515364149094D+04
     .504000000000D+05 -.229105353355D-06  .138070823917D+01  .141561031342D-06
     .941003463726D+00  .266906250000D+03  .917326772445D+00 -.868179020284D-08
    -.301798285396D-09  .100000000000D+01  .182800000000D+04  .000000000000D+00
     .240000000000D+01  .000000000000D+00 -.325962901115D-08  .190000000000D+02
     .432060000000D+05  .400000000000D+01
11 15  1 18 14  0  0.0 -.551693607122D-03 -.272848410532D-11  .000000000000D+00
     .180000000000D+02 -.180312500000D+02  .582667127567D-08 -.256333180254D+01
    -.107288360596D-05  .155915177893D-01  .112354755402D-04  .515372683525D+04
     .504000000000D+05  .175088644028D-06 -.114596180934D-01  .558793544769D-08
     .892616751905D+00  .120687500000D+03  .137675372583D+01 -.827355891265D-08
     .610382567741D-09  .100000000000D+01  .182800000000D+04  .000000000000D+00
     .240000000000D+01  .000000000000D+00 -.121071934700D-07  .180000000000D+02
     .432060000000D+05  .400000000000D+01
12 15  1 18 14  0  0.0  .262322369963D-03  .295585778076D-11  .000000000000D+00
     .680000000000D+02 -.310625000000D+02  .412838624957D-08 -.308295840690D+01
    -.161305069923D-05  .516107806470D-02  .430271029472D-06  .515374830437D+04
     .504000000000D+05 -.391155481339D-07 -.172679543443D+01  .186264514923D-08
     .988822007423D+00  .386781250000D+03  .502906286031D+00 -.823034282681D-08
    -.232152527227D-10  .100000000000D+01  .182800000000D+04  .000000000000D+00
     .240000000000D+01  .000000000000D+00 -.125728547573D-07  .680000000000D+02
     .432060000000D+05  .400000000000D+01
13 15  1 18 14  0  0.0 -.799270346761D-04 -.352429196937D-11  .000000000000D+00
     .930000000000D+02  .441250000000D+02  .391837750187D-08 -.189909887378D+01
     .219233334064D-05  .533072371036D-02  .124685466290D-04  .515369406700D+04
     .504000000000D+05 -.838190317154D-07  .252790056303D+01  .819563865662D-07
     .975396737989D+00  .144843750000D+03  .206948339616D+01 -.759817363729D-08
    -.632169189527D-09  .100000000000D+01  .182800000000D+04  .000000000000D+00
     .240000000000D+01  .000000000000D+00 -.116415321827D-07  .930000000000D+02
     .432060000000D+05  .400000000000D+01
14 15  1 18 14  0  0.0  .956906005740D-04 -.352429196937D-11  .000000000000D+00
     .230000000000D+02  .188125000000D+02  .423124767702D-08 -.470479750056D-01
     .105984508991D-05  .773723586462D-02  .117104500532D-04  .515377688599D+04
     .504000000000D+05 -.949949026108D-07  .249417848729D+01  .152736902237D-06
     .967866032168D+00  .160625000000D+03 -.196670152513D+01 -.787032783074D-08
    -.582167106740D-09  .100000000000D+01  .182800000000D+04  .000000000000D+00
     .240000000000D+01  .000000000000D+00 -.931322574615D-08  .230000000000D+02
     .432060000000D+05  .400000000000D+01
15 15  1 18 14  0  0.0 -.227048527449D-03 -.227373675443D-11  .000000000000D+00
     .880000000000D+02  .100312500000D+02  .500377985609D-08 -.703518031390D+00
     .460073351860D-06  .704062217847D-02  .113751739264D-04  .515357884407D+04
     .504000000000D+05  .149011611938D-06  .237439621495D+01 -.931322574615D-08
     .934378114016D+00  .145812500000D+03  .358816017670D+00 -.819212694926D-08
    -.721815780810D-09  .100000000000D+01  .182800000000D+04  .000000000000D+00
     .240000000000D+01  .000000000000D+00 -.107102096081D-07  .880000000000D+02
     .432060000000D+05  .400000000000D+01
16 15  1 18 14  0  0.0 -.163944438100D-03  .318323145621D-11  .000000000000D+00
     .122000000000D+03 -.305625000000D+02  .405445459859D-08  .106577077717D+01
    -.153295695782D-05  .794012972619D-02  .936910510063D-06  .515373445320D+04
     .504000000000D+05  .931322574615D-08 -.170814407741D+01  .726431608200D-07
     .989382465968D+00  .374625000000D+03  .232105826128D+00 -.826105839196D-08
    -.133576992589D-09  .100000000000D+01  .182800000000D+04  .000000000000D+00
     .240000000000D+01  .000000000000D+00 -.102445483208D-07  .122000000000D+03
     .432060000000D+05  .400000000000D+01
17 15  1 18 14  0  0.0 -.150689389557D-03 -.216004991671D-11  .000000000000D+00
     .220000000000D+02 -.124125000000D+03  .410695678552D-08  .140546938870D+00
    -.656396150589D-05  .100154657848D-01  .106394290924D-04  .515371138954D+04
     .504000000000D+05 -.124797224998D-06 -.679265716955D+00  .130385160446D-06
     .971320540588D+00  .182218750000D+03 -.205205672833D+01 -.799676166865D-08
    -.560737642688D-10  .100000000000D+01  .182800000000D+04  .000000000000D+00
     .240000000000D+01  .000000000000D+00 -.107102096081D-07  .220000000000D+02
     .432060000000D+05  .400000000000D+01
18 15  1 18 14  0  0.0  .373166520149D-03  .272848410532D-11  .000000000000D+00
     .400000000000D+02 -.725000000000D+01  .597060584256D-08  .162582514898D+01
    -.661239027977D-06  .155917427037D-01  .489689409733D-05  .515374320602D+04
     .504000000000D+05 -.327825546265D-06  .135446232288D+01 -.277534127235D-06
     .924787544930D+00  .270906250000D+03 -.199505309694D+01 -.879358057364D-08
    -.992898501065D-10  .100000000000D+01  .182800000000D+04  .000000000000D+00
     .240000000000D+01  .000000000000D+00 -.111758708954D-07  .400000000000D+02
     .432060000000D+05  .400000000000D+01
19 15  1 18 14  0  0.0 -.497105531394D-03 -.147792889038D-11  .000000000000D+00
     .250000000000D+02 -.117718750000D+03  .418517432931D-08 -.683537418729D+00
    -.607967376709D-05  .108411298133D-01  .997446477413D-05  .515369264603D+04
     .504000000000D+05  .186264514923D-06 -.629229986320D+00  .119209289551D-06
     .968437803459D+00  .189656250000D+03  .516336583514D+00 -.796461747257D-08
    -.285726187357D-10  .100000000000D+01  .182800000000D+04  .000000000000D+00
     .240000000000D+01  .000000000000D+00 -.149011611938D-07  .250000000000D+02
     .432060000000D+05  .400000000000D+01
20 15  1 18 14  0  0.0  .280003063381D-03  .420641299570D-11  .000000000000D+00
     .620000000000D+02 -.675000000000D+01  .587738767393D-08  .177655110403D+01
    -.482425093651D-06  .584314414300D-02  .479258596897D-05  .515576409721D+04
     .504000000000D+05 -.819563865662D-07  .130166986064D+01 -.117346644402D-06
     .925962449550D+00  .267375000000D+03  .123813565469D+01 -.861857328389D-08
    -.992898501065D-10  .100000000000D+01  .182800000000D+04  .000000000000D+00
     .240000000000D+01  .000000000000D+00 -.838190317154D-08  .620000000000D+02
     .432060000000D+05  .400000000000D+01
